{
 "generated_at": "2026-07-16T07:22:15Z",
 "sources": [
  {
   "name": "CelesTrak",
   "url": "https://celestrak.org/NORAD/elements/",
   "license": "frei verfügbar; Attribution. Ursprünglich USSPACECOM/Space-Track."
  },
  {
   "name": "GCAT (J. McDowell, planet4589.org)",
   "url": "https://planet4589.org/space/gcat/",
   "license": "CC-BY 4.0"
  }
 ],
 "satellites": [
  {
   "norad": 39260,
   "name": "FENGYUN 3C",
   "intl": "2013-052A",
   "group": "weather",
   "gcat": {
    "class": "C",
    "category": "MET",
    "owner": "NSMC",
    "state": "CN"
   },
   "omm": {
    "OBJECT_NAME": "FENGYUN 3C",
    "OBJECT_ID": "2013-052A",
    "EPOCH": "2026-07-15T22:46:51.726720",
    "MEAN_MOTION": 14.15760894,
    "ECCENTRICITY": 0.00136394,
    "INCLINATION": 98.4999,
    "RA_OF_ASC_NODE": 169.5064,
    "ARG_OF_PERICENTER": 303.6275,
    "MEAN_ANOMALY": 56.3598,
    "EPHEMERIS_TYPE": 0,
    "CLASSIFICATION_TYPE": "U",
    "NORAD_CAT_ID": 39260,
    "ELEMENT_SET_NO": 999,
    "REV_AT_EPOCH": 66263,
    "BSTAR": 0.000034386917,
    "MEAN_MOTION_DOT": 2.6e-7,
    "MEAN_MOTION_DDOT": 0
   }
  },
  {
   "norad": 43010,
   "name": "FENGYUN 3D",
   "intl": "2017-072A",
   "group": "weather",
   "gcat": {
    "class": "C",
    "category": "MET",
    "owner": "NSMC",
    "state": "CN"
   },
   "omm": {
    "OBJECT_NAME": "FENGYUN 3D",
    "OBJECT_ID": "2017-072A",
    "EPOCH": "2026-07-15T21:37:27.689952",
    "MEAN_MOTION": 14.19745145,
    "ECCENTRICITY": 0.00014782,
    "INCLINATION": 99.014,
    "RA_OF_ASC_NODE": 171.8448,
    "ARG_OF_PERICENTER": 12.3918,
    "MEAN_ANOMALY": 347.7294,
    "EPHEMERIS_TYPE": 0,
    "CLASSIFICATION_TYPE": "U",
    "NORAD_CAT_ID": 43010,
    "ELEMENT_SET_NO": 999,
    "REV_AT_EPOCH": 44906,
    "BSTAR": 0.000045032285,
    "MEAN_MOTION_DOT": 4.9e-7,
    "MEAN_MOTION_DDOT": 0
   }
  },
  {
   "norad": 49008,
   "name": "FENGYUN 3E",
   "intl": "2021-062A",
   "group": "weather",
   "gcat": {
    "class": "C",
    "category": "MET",
    "owner": "NSMC",
    "state": "CN"
   },
   "omm": {
    "OBJECT_NAME": "FENGYUN 3E",
    "OBJECT_ID": "2021-062A",
    "EPOCH": "2026-07-15T22:51:08.335584",
    "MEAN_MOTION": 14.19905549,
    "ECCENTRICITY": 0.00022269,
    "INCLINATION": 98.7495,
    "RA_OF_ASC_NODE": 200.04,
    "ARG_OF_PERICENTER": 37.8101,
    "MEAN_ANOMALY": 322.3231,
    "EPHEMERIS_TYPE": 0,
    "CLASSIFICATION_TYPE": "U",
    "NORAD_CAT_ID": 49008,
    "ELEMENT_SET_NO": 999,
    "REV_AT_EPOCH": 26066,
    "BSTAR": -0.00013119363,
    "MEAN_MOTION_DOT": -0.00000322,
    "MEAN_MOTION_DDOT": 0
   }
  },
  {
   "norad": 57490,
   "name": "FENGYUN 3F",
   "intl": "2023-111A",
   "group": "weather",
   "gcat": {
    "class": "C",
    "category": "MET",
    "owner": "NSMC",
    "state": "CN"
   },
   "omm": {
    "OBJECT_NAME": "FENGYUN 3F",
    "OBJECT_ID": "2023-111A",
    "EPOCH": "2026-07-15T22:26:58.892640",
    "MEAN_MOTION": 14.19943465,
    "ECCENTRICITY": 0.00012618,
    "INCLINATION": 98.6825,
    "RA_OF_ASC_NODE": 266.4068,
    "ARG_OF_PERICENTER": 76.1287,
    "MEAN_ANOMALY": 284.003,
    "EPHEMERIS_TYPE": 0,
    "CLASSIFICATION_TYPE": "U",
    "NORAD_CAT_ID": 57490,
    "ELEMENT_SET_NO": 999,
    "REV_AT_EPOCH": 15294,
    "BSTAR": 0.000028113161,
    "MEAN_MOTION_DOT": 1.6e-7,
    "MEAN_MOTION_DDOT": 0
   }
  },
  {
   "norad": 56232,
   "name": "FENGYUN 3G",
   "intl": "2023-055A",
   "group": "weather",
   "gcat": {
    "class": "C",
    "category": "MET",
    "owner": "NSMC",
    "state": "CN"
   },
   "omm": {
    "OBJECT_NAME": "FENGYUN 3G",
    "OBJECT_ID": "2023-055A",
    "EPOCH": "2026-07-15T23:47:51.304128",
    "MEAN_MOTION": 15.53811732,
    "ECCENTRICITY": 0.00070281,
    "INCLINATION": 49.9905,
    "RA_OF_ASC_NODE": 197.4634,
    "ARG_OF_PERICENTER": 59.5601,
    "MEAN_ANOMALY": 300.606,
    "EPHEMERIS_TYPE": 0,
    "CLASSIFICATION_TYPE": "U",
    "NORAD_CAT_ID": 56232,
    "ELEMENT_SET_NO": 999,
    "REV_AT_EPOCH": 18448,
    "BSTAR": 0.00022422662,
    "MEAN_MOTION_DOT": 0.00014258,
    "MEAN_MOTION_DDOT": 0
   }
  },
  {
   "norad": 65815,
   "name": "FENGYUN 3H",
   "intl": "2025-219A",
   "group": "weather",
   "gcat": {
    "class": "C",
    "category": "MET",
    "owner": "NSMC",
    "state": "CN"
   },
   "omm": {
    "OBJECT_NAME": "FENGYUN 3H",
    "OBJECT_ID": "2025-219A",
    "EPOCH": "2026-07-15T20:40:50.194848",
    "MEAN_MOTION": 14.19924852,
    "ECCENTRICITY": 0.000113,
    "INCLINATION": 98.677,
    "RA_OF_ASC_NODE": 137.0741,
    "ARG_OF_PERICENTER": 62.4544,
    "MEAN_ANOMALY": 297.6747,
    "EPHEMERIS_TYPE": 0,
    "CLASSIFICATION_TYPE": "U",
    "NORAD_CAT_ID": 65815,
    "ELEMENT_SET_NO": 999,
    "REV_AT_EPOCH": 4145,
    "BSTAR": 0.00002389285,
    "MEAN_MOTION_DOT": 7e-8,
    "MEAN_MOTION_DDOT": 0
   }
  },
  {
   "norad": 41882,
   "name": "FENGYUN 4A",
   "intl": "2016-077A",
   "group": "weather",
   "gcat": {
    "class": "C",
    "category": "MET",
    "owner": "NSMC",
    "state": "CN"
   },
   "omm": {
    "OBJECT_NAME": "FENGYUN 4A",
    "OBJECT_ID": "2016-077A",
    "EPOCH": "2026-07-15T20:48:04.728096",
    "MEAN_MOTION": 1.00267758,
    "ECCENTRICITY": 0.00084993,
    "INCLINATION": 2.393,
    "RA_OF_ASC_NODE": 79.9483,
    "ARG_OF_PERICENTER": 159.6393,
    "MEAN_ANOMALY": 129.8761,
    "EPHEMERIS_TYPE": 0,
    "CLASSIFICATION_TYPE": "U",
    "NORAD_CAT_ID": 41882,
    "ELEMENT_SET_NO": 999,
    "REV_AT_EPOCH": 3521,
    "BSTAR": 0,
    "MEAN_MOTION_DOT": -0.00000369,
    "MEAN_MOTION_DDOT": 0
   }
  },
  {
   "norad": 42920,
   "name": "FORMOSAT-5",
   "intl": "2017-049A",
   "group": "resource",
   "gcat": {
    "class": "C",
    "category": "IMG/SCI",
    "owner": "NSPO",
    "state": "TW"
   },
   "omm": {
    "OBJECT_NAME": "FORMOSAT-5",
    "OBJECT_ID": "2017-049A",
    "EPOCH": "2026-07-15T21:06:24.696864",
    "MEAN_MOTION": 14.50907929,
    "ECCENTRICITY": 0.00112946,
    "INCLINATION": 98.2246,
    "RA_OF_ASC_NODE": 271.5507,
    "ARG_OF_PERICENTER": 1.7428,
    "MEAN_ANOMALY": 358.3805,
    "EPHEMERIS_TYPE": 0,
    "CLASSIFICATION_TYPE": "U",
    "NORAD_CAT_ID": 42920,
    "ELEMENT_SET_NO": 999,
    "REV_AT_EPOCH": 47083,
    "BSTAR": 0.000022094893,
    "MEAN_MOTION_DOT": 4.4e-7,
    "MEAN_MOTION_DDOT": 0
   }
  },
  {
   "norad": 39150,
   "name": "GAOFEN-1",
   "intl": "2013-018A",
   "group": "resource",
   "gcat": {
    "class": "C",
    "category": "IMG",
    "owner": "CNSAS",
    "state": "CN"
   },
   "omm": {
    "OBJECT_NAME": "GAOFEN-1",
    "OBJECT_ID": "2013-018A",
    "EPOCH": "2026-07-15T22:22:10.905888",
    "MEAN_MOTION": 14.76517962,
    "ECCENTRICITY": 0.00170839,
    "INCLINATION": 97.9091,
    "RA_OF_ASC_NODE": 268.4139,
    "ARG_OF_PERICENTER": 168.7601,
    "MEAN_ANOMALY": 191.3993,
    "EPHEMERIS_TYPE": 0,
    "CLASSIFICATION_TYPE": "U",
    "NORAD_CAT_ID": 39150,
    "ELEMENT_SET_NO": 999,
    "REV_AT_EPOCH": 71248,
    "BSTAR": -0.000011016712,
    "MEAN_MOTION_DOT": -0.00000128,
    "MEAN_MOTION_DDOT": 0
   }
  },
  {
   "norad": 43259,
   "name": "GAOFEN-1 02",
   "intl": "2018-031A",
   "group": "resource",
   "gcat": {
    "class": "C",
    "category": "IMG",
    "owner": "CNSAS",
    "state": "CN"
   },
   "omm": {
    "OBJECT_NAME": "GAOFEN-1 02",
    "OBJECT_ID": "2018-031A",
    "EPOCH": "2026-07-15T23:10:26.568192",
    "MEAN_MOTION": 14.76472139,
    "ECCENTRICITY": 0.00014827,
    "INCLINATION": 98.0518,
    "RA_OF_ASC_NODE": 259.4098,
    "ARG_OF_PERICENTER": 283.473,
    "MEAN_ANOMALY": 76.6314,
    "EPHEMERIS_TYPE": 0,
    "CLASSIFICATION_TYPE": "U",
    "NORAD_CAT_ID": 43259,
    "ELEMENT_SET_NO": 999,
    "REV_AT_EPOCH": 44694,
    "BSTAR": 0.000027599899,
    "MEAN_MOTION_DOT": 0.00000141,
    "MEAN_MOTION_DDOT": 0
   }
  }
 ]
}
